#aV2011 10 12  0  0   .00000000      96 DD+AD WGS84 FIT  NGA
## 1657 259200.00000000   900.00000000 55846  .0000000000000
+   31     1  2  3  4  5  6  7  8  9 10 11 12 13 14 15 16 17
+         18 19 20 21 22 23 25 26 27 28 29 30 31 32  0  0  0
+          0  0  0  0  0  0  0  0  0  0  0  0  0  0  0  0  0
+          0  0  0  0  0  0  0  0  0  0  0  0  0  0  0  0  0
+          0  0  0  0  0  0  0  0  0  0  0  0  0  0  0  0  0
++         0  0  0  0  0  0  0  0  0  0  0  0  0  0  0  0  0
++         0  0  0  0  0  0  0  0  0  0  0  0  0  0  0  0  0
++         0  0  0  0  0  0  0  0  0  0  0  0  0  0  0  0  0
++         0  0  0  0  0  0  0  0  0  0  0  0  0  0  0  0  0
++         0  0  0  0  0  0  0  0  0  0  0  0  0  0  0  0  0
%c cc cc ccc ccc cccc cccc cccc cccc ccccc ccccc ccccc ccccc
%c cc cc ccc ccc cccc cccc cccc cccc ccccc ccccc ccccc ccccc
%f  0.0000000  0.000000000  0.00000000000  0.000000000000000
%f  0.0000000  0.000000000  0.00000000000  0.000000000000000
%i    0    0    0    0      0      0      0      0         0
%i    0    0    0    0      0      0      0      0         0
/*      NGA, ST. LOUIS,MO.                                  
/*   EPHEMERIS COMPUTED FROM  3 DAYS OF DATA                
/* CCCCCCCCCCCCCCCCCCCCCCCCCCCCCCCCCCCCCCCCCCCCCCCCCCCCCCCCC
/* CCCCCCCCCCCCCCCCCCCCCCCCCCCCCCCCCCCCCCCCCCCCCCCCCCCCCCCCC
*  2011 10 12 15  0   .00000000                                                 
P  1  13614.922565 -22690.189039   2272.278646     20.183098                    
V  1   1153.733472   3872.190992  31579.579372       .315138                    
P  2 -17820.587383   4469.732584 -18928.605746    360.473300                    
V  2   9408.245337 -22630.209317 -14639.521398       .017883                    
P  3  19741.083205   3986.342587  17011.313740    780.359879                    
V  3  12574.901462  18745.552302 -18205.519505       .051047                    
P  4 -12326.828489 -10211.639672 -21394.331556    258.344309                    
V  4  13068.134843 -23352.340777   3994.947536       .113594                    
P  5 -26465.915679   2278.268079   1816.672693   -230.722587                    
V  5  -2425.927435  -2866.281707 -31392.502455      -.051185                    
P  6  20027.184085   8711.278968  15422.481413    -50.999445                    
V  6   9244.602608  17108.623579 -21609.027359       .074091                    
P  7   3879.101946 -23463.863080  11581.588850     31.384639                    
V  7   8977.997003 -11901.799360 -27387.507881       .020039                    
P  8  -3107.892660 -17907.356028  19189.081482       .053231                    
V  8  14277.173196 -19806.121063 -16765.229699       .000164                    
P  9 -14859.577460  21215.227027   5380.980293    111.263451                    
V  9   1576.965487  -7640.901886  31279.337660       .024528                    
P 10 -20024.460781 -10235.635242 -14650.987894    -15.969567                    
V 10  18065.916911  -2319.582697 -23049.893968      -.010864                    
P 11  13072.307727 -20472.709130   9991.634138   -194.098114                    
V 11   1614.944235  14202.225459  26410.542869      -.033811                    
P 12 -16304.551250  11868.857976 -17185.215356     28.052648                    
V 12 -21887.723127  -1193.305349  20099.088718       .023420                    
P 13  -2105.883336 -23051.455175 -13085.792780    247.005491                    
V 13   8883.013186  13854.731787 -26183.524617      -.019083                    
P 14  15189.987426  21334.381309  -4706.394574    176.478432                    
V 14   1161.345547   6382.623709  31357.174331       .017262                    
P 15 -11625.392582  10421.687282  21485.127165   -102.851372                    
V 15 -15250.156685 -22670.157840   2924.641163       .013405                    
P 16  26482.278025  -1960.342854   2983.328328   -202.940298                    
V 16   3729.835172   2019.675748 -31638.453780      -.021245                    
P 17 -15687.598455 -21147.974874  -4202.272260    171.018898                    
V 17   -534.544186  -6028.682454  31020.759593      -.018799                    
P 18   4165.251765  15765.941801  21339.525197    161.779750                    
V 18 -26377.479950    906.076055   4181.841891       .018533                    
P 19  13759.781084  -6569.433963  21720.902419   -193.495743                    
V 19  12706.061282  24563.163995   -260.680902      -.040175                    
P 20  14730.409978 -13960.214642 -17243.818746     54.274566                    
V 20  21840.931680    547.991641  18435.958794       .005926                    
P 21    351.832509  22159.676095  14623.739670   -177.418925                    
V 21 -11284.453221  14528.179284 -23020.160223      -.024396                    
P 22  18247.315299  11453.466394  15785.491958    144.027242                    
V 22 -19721.982206   2802.757928  20892.015182      -.002497                    
P 23   5007.725764 -17494.330953 -19193.456422    268.527457                    
V 23  14025.850359  20193.692296 -15082.727180      -.031432                    
P 25  -4575.540699  15051.592707 -21422.118621     23.016687                    
V 25 -27122.956461    748.593056   6354.386286       .018096                    
P 26 -16660.829809  -3479.690998  19904.015150   -188.123341                    
V 26 -11479.459901 -23824.970582 -13004.136568      -.130540                    
P 27 -17077.379081  16142.431788  12631.264836    314.444979                    
V 27   4841.876115 -14455.250115  26745.685020       .039600                    
P 28 -14922.198411 -12699.116459  18576.413090     74.964725                    
V 28  22389.646593   -809.675495  17702.704247       .032189                    
P 29   2729.671338  23014.835883 -12946.936630    247.773668                    
V 29 -10122.801278 -13252.827872 -25524.940003       .033411                    
P 30  13174.883738  12336.311328 -19889.552959     70.642961                    
V 30 -24027.930195   4462.097667 -13413.104927      -.053850                    
P 31  13256.194216   6364.380836 -21922.065582    154.378874                    
V 31 -13615.930612  24760.533561   -827.747062       .053262                    
P 32  21973.714319  -7530.397516 -12200.519869   -344.232760                    
V 32  15916.394761   3733.699713  26249.001147      -.062764                    
EOF
